HIMAWARI-8              
1 40267U 14060A   24103.97826755 -.00000285  00000+0  00000+0 0  9993
2 40267   0.0342 145.9234 0000780 253.7383 294.8117  1.00271950 34783
